[{"OBJECT_NAME":"STARLINK-11316 [DTC]","OBJECT_ID":"2024-204B","EPOCH":"2026-03-09T23:20:18.596544","MEAN_MOTION":15.69690119,"ECCENTRICITY":0.00012991,"INCLINATION":53.1591,"RA_OF_ASC_NODE":354.5328,"ARG_OF_PERICENTER":58.2233,"MEAN_ANOMALY":301.8912,"EPHEMERIS_TYPE":0,"CLASSIFICATION_TYPE":"U","NORAD_CAT_ID":61875,"ELEMENT_SET_NO":999,"REV_AT_EPOCH":7696,"BSTAR":9.28149e-6,"MEAN_MOTION_DOT":5.35e-6,"MEAN_MOTION_DDOT":0},{"OBJECT_NAME":"FLOCK 4BE-16","OBJECT_ID":"2024-149R","EPOCH":"2026-03-09T18:09:47.863872","MEAN_MOTION":15.69331853,"ECCENTRICITY":0.0006629,"INCLINATION":97.3709,"RA_OF_ASC_NODE":154.3606,"ARG_OF_PERICENTER":231.2674,"MEAN_ANOMALY":128.7996,"EPHEMERIS_TYPE":0,"CLASSIFICATION_TYPE":"U","NORAD_CAT_ID":60483,"ELEMENT_SET_NO":999,"REV_AT_EPOCH":8717,"BSTAR":0.0016709449,"MEAN_MOTION_DOT":0.00199478,"MEAN_MOTION_DDOT":0}]
